OBJECT_NAME,OBJECT_ID,EPOCH,MEAN_MOTION,ECCENTRICITY,INCLINATION,RA_OF_ASC_NODE,ARG_OF_PERICENTER,MEAN_ANOMALY,EPHEMERIS_TYPE,CLASSIFICATION_TYPE,NORAD_CAT_ID,ELEMENT_SET_NO,REV_AT_EPOCH,BSTAR,MEAN_MOTION_DOT,MEAN_MOTION_DDOT
GPS BIIR-5  (PRN 22),2000-040A,2026-07-06T17:25:41.575296,2.00557800,.0120707,54.8495,214.3861,302.6395,48.9523,0,U,26407,999,19033,0,.89E-6,0
GPS BIIR-8  (PRN 16),2003-005A,2026-07-06T16:29:17.092032,2.00559504,.0148129,54.8800,214.1939,53.1381,46.3257,0,U,27663,999,17170,0,.89E-6,0
GPS BIIR-11 (PRN 19),2004-009A,2026-07-06T19:23:57.143328,2.00554040,.0116897,54.8133,274.8940,173.9696,165.7920,0,U,28190,999,16333,0,-.22E-6,0
GPS BIIR-13 (PRN 02),2004-045A,2026-07-06T19:05:28.383360,2.00556743,.0170043,55.1238,324.1069,316.8633,78.6534,0,U,28474,999,15882,0,-.7E-6,0
GPS BIIRM-1 (PRN 17),2005-038A,2026-07-06T19:09:05.395104,2.00564304,.012812,54.8622,272.3856,296.3155,65.3878,0,U,28874,999,15223,0,-.18E-6,0
INMARSAT 4-F2 (SOUTHPAN/PRN 122),2005-044A,2026-07-06T11:03:12.235392,1.00271325,.0003083,5.1182,43.6509,53.4955,136.5803,0,U,28899,999,7571,0,-.249E-5,0
GPS BIIRM-2 (PRN 31),2006-042A,2026-07-05T22:55:42.045600,2.00568777,.0106954,54.7125,150.5939,54.9040,317.1581,0,U,29486,999,14477,0,.79E-6,0
GPS BIIRM-3 (PRN 12),2006-052A,2026-07-06T08:45:20.816928,2.00559185,.0084825,54.9331,213.2460,90.9724,270.0564,0,U,29601,999,14379,0,.88E-6,0
GPS BIIRM-4 (PRN 15),2007-047A,2026-07-06T04:07:12.205056,2.00554349,.01674779,54.1088,79.2833,87.7884,274.1771,0,U,32260,999,13719,0,-.25E-6,0
COSMOS 2433 (720),2007-052A,2026-07-06T14:59:12.840288,2.13104420,.0003154,65.5647,315.2797,200.7777,159.2204,0,U,32275,999,14547,0,-.46E-6,0
COSMOS 2432 (719),2007-052B,2026-07-05T19:29:20.285376,2.13103455,.00074619,65.5814,315.4351,325.7990,74.7543,0,U,32276,999,14548,0,-.44E-6,0
GPS BIIRM-5 (PRN 29),2007-062A,2026-07-05T11:33:10.069056,2.00561130,.0035968,55.0171,273.4168,166.8347,182.4853,0,U,32384,999,13587,0,-.19E-6,0
COSMOS 2434 (721),2007-065A,2026-07-06T06:41:40.966368,2.13101434,.00012788,64.3195,191.2718,327.0370,17.6431,0,U,32393,999,14417,0,.112E-5,0
COSMOS 2436 (723),2007-065C,2026-07-06T17:46:42.386304,2.13100220,.0017275,64.3281,191.3285,353.5093,117.6939,0,U,32395,999,14414,0,.116E-5,0
GPS BIIRM-6 (PRN 07),2008-012A,2026-07-06T13:54:52.437312,2.00572917,.0211586,54.4994,149.1501,248.0609,109.6589,0,U,32711,999,13414,0,.78E-6,0
GPS BIIRM-8 (PRN 05),2009-043A,2026-07-04T07:52:02.582688,2.00553431,.00538014,56.2210,26.7791,83.9262,98.4473,0,U,35752,999,12370,0,-.59E-6,0
COSMOS 2456 (730),2009-070A,2026-07-06T19:34:17.612832,2.13103875,.0003927,65.0225,70.3026,335.7761,218.7724,0,U,36111,999,12884,0,-.2E-6,0
COSMOS 2457 (733),2009-070B,2026-07-06T14:27:16.799328,2.13101337,.0003694,65.0079,70.1537,124.2293,33.9860,0,U,36112,999,12884,0,-.19E-6,0
COSMOS 2460 (732),2010-007C,2026-07-05T23:41:22.131744,2.13101949,.0001904,65.4084,313.8306,128.1382,280.0670,0,U,36402,999,12713,0,-.44E-6,0
GPS BIIF-1  (PRN 25),2010-022A,2026-07-05T21:37:03.395136,2.00563324,.0126546,54.2693,207.8082,66.1443,291.3331,0,U,36585,999,11796,0,.88E-6,0
BEIDOU-2 IGSO-1 (C06),2010-036A,2026-07-06T19:47:05.593056,1.00266641,.0059267,54.3063,162.7828,225.2322,300.9018,0,U,36828,999,5829,0,-.61E-6,0
BEIDOU-2 G4 (C04),2010-057A,2026-07-06T19:41:13.034400,1.00271008,.0005067,3.6924,68.8287,186.3732,124.8660,0,U,37210,999,5748,0,-.1E-5,0
BEIDOU-2 IGSO-2 (C07),2010-068A,2026-07-06T16:01:03.619200,1.00276802,.0056612,47.5121,271.5911,213.5272,148.0884,0,U,37256,999,5699,0,-.202E-5,0
BEIDOU-2 IGSO-3 (C08),2011-013A,2026-07-06T12:35:26.043936,1.00262965,.0035245,62.4337,39.9702,183.2519,357.0849,0,U,37384,999,5585,0,-.17E-5,0
GSAT-8 (GAGAN/PRN 127),2011-022A,2026-07-06T20:54:01.445184,1.00270719,.0002402,2.1787,81.5897,167.0325,44.8091,0,U,37605,999,5341,0,.99E-6,0
BEIDOU-2 IGSO-4 (C09),2011-038A,2026-07-06T20:09:40.657824,1.00281732,.016007,54.6039,165.4986,231.4311,284.4062,0,U,37763,999,5484,0,.48E-6,0
GSAT0101 (GALILEO-PFM),2011-060A,2026-07-03T06:32:47.607072,1.70475789,.0002657,56.9888,341.3256,57.8189,302.2010,0,U,37846,999,9139,0,-.76E-6,0
GSAT0102 (GALILEO-FM2),2011-060B,2026-07-03T18:53:16.727424,1.70476028,.0002522,56.9894,341.3121,12.9231,348.3249,0,U,37847,999,9141,0,-.75E-6,0
COSMOS 2476 (744),2011-064A,2026-07-06T10:36:02.714976,2.13103999,.00224354,65.2805,72.2217,236.7935,299.3248,0,U,37867,999,11417,0,-.17E-6,0
COSMOS 2477 (745),2011-064B,2026-07-05T18:31:38.127648,2.13103224,.00194614,65.2866,72.3238,238.0752,324.5330,0,U,37868,999,11415,0,-.14E-6,0
COSMOS 2475 (743),2011-064C,2026-07-06T00:08:31.678080,2.13102013,.0025065,65.2937,72.3376,251.7449,85.3834,0,U,37869,999,11416,0,-.15E-6,0
